{
  "norad_id": 49301,
  "name": "ONEWEB-0375",
  "history": [
    {
      "epoch": "2026-03-28T19:08:43.769184Z",
      "apogee_km": 1182.6469515201525,
      "perigee_km": 1180.8929019150155,
      "latitude_deg": -8.799823286029499e-06,
      "longitude_deg": 177.08941480055452,
      "height_km": 1184.7102357202925,
      "semi_major_axis_km": 7559.906926717584,
      "eccentricity": 0.00011601,
      "inclination_deg": 87.9146,
      "raan_deg": 290.4848,
      "arg_perigee_deg": 92.5538,
      "mean_anomaly_deg": 267.5728,
      "mean_motion_rev_day": 13.20772716
    },
    {
      "epoch": "2026-03-29T02:25:05.359872Z",
      "apogee_km": 1182.636657353104,
      "perigee_km": 1180.908462027759,
      "latitude_deg": -5.852948924387972e-06,
      "longitude_deg": 67.64027597895769,
      "height_km": 1184.7219835082992,
      "semi_major_axis_km": 7559.909559690432,
      "eccentricity": 0.0001143,
      "inclination_deg": 87.9146,
      "raan_deg": 290.4243,
      "arg_perigee_deg": 93.1952,
      "mean_anomaly_deg": 266.9312,
      "mean_motion_rev_day": 13.20772026
    },
    {
      "epoch": "2026-03-30T02:03:15.365664Z",
      "apogee_km": 1182.6468630537565,
      "perigee_km": 1180.899011876214,
      "latitude_deg": -2.5264683694555137e-05,
      "longitude_deg": 71.93118437447815,
      "height_km": 1184.7505710135567,
      "semi_major_axis_km": 7559.909937464985,
      "eccentricity": 0.0001156,
      "inclination_deg": 87.9146,
      "raan_deg": 290.2276,
      "arg_perigee_deg": 95.0141,
      "mean_anomaly_deg": 265.1124,
      "mean_motion_rev_day": 13.20771927
    },
    {
      "epoch": "2026-03-30T12:57:47.628576Z",
      "apogee_km": 1182.636937934686,
      "perigee_km": 1180.9067771935433,
      "latitude_deg": 2.2055051051275977e-05,
      "longitude_deg": -92.24205733244621,
      "height_km": 1184.7584482717828,
      "semi_major_axis_km": 7559.908857564114,
      "eccentricity": 0.00011443,
      "inclination_deg": 87.9147,
      "raan_deg": 290.1368,
      "arg_perigee_deg": 95.6602,
      "mean_anomaly_deg": 264.4662,
      "mean_motion_rev_day": 13.2077221
    },
    {
      "epoch": "2026-03-30T20:14:09.176064Z",
      "apogee_km": 1182.6231187452768,
      "perigee_km": 1180.9198713613414,
      "latitude_deg": 2.668044828919514e-05,
      "longitude_deg": 158.30888477738995,
      "height_km": 1184.7578651715687,
      "semi_major_axis_km": 7559.908495053309,
      "eccentricity": 0.00011265,
      "inclination_deg": 87.9148,
      "raan_deg": 290.0762,
      "arg_perigee_deg": 95.733,
      "mean_anomaly_deg": 264.3932,
      "mean_motion_rev_day": 13.20772305
    },
    {
      "epoch": "2026-03-31T12:35:57.672384Z",
      "apogee_km": 1182.6478307538682,
      "perigee_km": 1180.8972580997606,
      "latitude_deg": -2.0842362438913898e-05,
      "longitude_deg": -87.95150790878868,
      "height_km": 1184.767429309394,
      "semi_major_axis_km": 7559.909544426814,
      "eccentricity": 0.00011578,
      "inclination_deg": 87.9146,
      "raan_deg": 289.9399,
      "arg_perigee_deg": 96.1407,
      "mean_anomaly_deg": 263.9858,
      "mean_motion_rev_day": 13.2077203
    },
    {
      "epoch": "2026-04-01T19:30:29.212704Z",
      "apogee_km": 1182.6763852176864,
      "perigee_km": 1180.8680549322444,
      "latitude_deg": -7.925269261577525e-05,
      "longitude_deg": 166.8903959268303,
      "height_km": 1184.8098210988035,
      "semi_major_axis_km": 7559.909220074965,
      "eccentricity": 0.0001196,
      "inclination_deg": 87.9144,
      "raan_deg": 289.6826,
      "arg_perigee_deg": 98.6755,
      "mean_anomaly_deg": 261.4513,
      "mean_motion_rev_day": 13.20772115
    },
    {
      "epoch": "2026-04-02T19:08:39.181344Z",
      "apogee_km": 1182.7027689214528,
      "perigee_km": 1180.8400074945994,
      "latitude_deg": -5.492241685846056e-06,
      "longitude_deg": 171.18126315380377,
      "height_km": 1184.8448236841627,
      "semi_major_axis_km": 7559.908388208026,
      "eccentricity": 0.0001232,
      "inclination_deg": 87.9144,
      "raan_deg": 289.4857,
      "arg_perigee_deg": 100.6588,
      "mean_anomaly_deg": 259.4684,
      "mean_motion_rev_day": 13.20772333
    },
    {
      "epoch": "2026-04-02T22:46:49.912320Z",
      "apogee_km": 1182.7152083899573,
      "perigee_km": 1180.8243245095318,
      "latitude_deg": 0.00010015410970571103,
      "longitude_deg": 116.4571165713166,
      "height_km": 1184.8508647212361,
      "semi_major_axis_km": 7559.906766449744,
      "eccentricity": 0.00012506,
      "inclination_deg": 87.9144,
      "raan_deg": 289.4556,
      "arg_perigee_deg": 100.9737,
      "mean_anomaly_deg": 259.1538,
      "mean_motion_rev_day": 13.20772758
    },
    {
      "epoch": "2026-04-03T13:19:32.984832Z",
      "apogee_km": 1182.7185801980231,
      "perigee_km": 1180.8225553800212,
      "latitude_deg": -8.091405252062445e-06,
      "longitude_deg": -102.44091031642981,
      "height_km": 1184.862342301131,
      "semi_major_axis_km": 7559.907567789022,
      "eccentricity": 0.0001254,
      "inclination_deg": 87.9142,
      "raan_deg": 289.3344,
      "arg_perigee_deg": 101.6006,
      "mean_anomaly_deg": 258.5268,
      "mean_motion_rev_day": 13.20772548
    },
    {
      "epoch": "2026-04-04T02:03:10.627488Z",
      "apogee_km": 1182.726324540682,
      "perigee_km": 1180.8130633545788,
      "latitude_deg": -4.241053402229313e-06,
      "longitude_deg": 66.02366094116499,
      "height_km": 1184.8732335670195,
      "semi_major_axis_km": 7559.906693947631,
      "eccentricity": 0.00012654,
      "inclination_deg": 87.914,
      "raan_deg": 289.2285,
      "arg_perigee_deg": 102.2155,
      "mean_anomaly_deg": 257.912,
      "mean_motion_rev_day": 13.20772777
    },
    {
      "epoch": "2026-04-05T14:24:58.244832Z",
      "apogee_km": 1182.7312652310275,
      "perigee_km": 1180.811350917109,
      "latitude_deg": 6.782436600713686e-05,
      "longitude_deg": -121.22112866168847,
      "height_km": 1184.881866822029,
      "semi_major_axis_km": 7559.9083080740675,
      "eccentricity": 0.00012698,
      "inclination_deg": 87.914,
      "raan_deg": 288.9255,
      "arg_perigee_deg": 102.6023,
      "mean_anomaly_deg": 257.5253,
      "mean_motion_rev_day": 13.20772354
    },
    {
      "epoch": "2026-04-05T19:52:14.359872Z",
      "apogee_km": 1182.73688461018,
      "perigee_km": 1180.8030604066125,
      "latitude_deg": 1.0755278012273441e-05,
      "longitude_deg": 156.69221547713715,
      "height_km": 1184.8953296177842,
      "semi_major_axis_km": 7559.9069725083955,
      "eccentricity": 0.0001279,
      "inclination_deg": 87.914,
      "raan_deg": 288.88,
      "arg_perigee_deg": 103.4098,
      "mean_anomaly_deg": 256.7178,
      "mean_motion_rev_day": 13.20772704
    },
    {
      "epoch": "2026-04-06T01:19:30.502560Z",
      "apogee_km": 1182.7388490740077,
      "perigee_km": 1180.7992795741457,
      "latitude_deg": -2.15922959924528e-05,
      "longitude_deg": 74.60554495832613,
      "height_km": 1184.8979129680279,
      "semi_major_axis_km": 7559.906064324076,
      "eccentricity": 0.00012828,
      "inclination_deg": 87.914,
      "raan_deg": 288.8346,
      "arg_perigee_deg": 103.5814,
      "mean_anomaly_deg": 256.5462,
      "mean_motion_rev_day": 13.20772942
    },
    {
      "epoch": "2026-04-07T11:52:12.775584Z",
      "apogee_km": 1182.756152553442,
      "perigee_km": 1180.783319291636,
      "latitude_deg": 4.493195089057198e-05,
      "longitude_deg": -85.27700987828176,
      "height_km": 1184.9311619796918,
      "semi_major_axis_km": 7559.906735922539,
      "eccentricity": 0.00013048,
      "inclination_deg": 87.914,
      "raan_deg": 288.5469,
      "arg_perigee_deg": 105.3026,
      "mean_anomaly_deg": 254.8252,
      "mean_motion_rev_day": 13.20772766
    },
    {
      "epoch": "2026-04-07T19:08:34.321344Z",
      "apogee_km": 1182.7616296907363,
      "perigee_km": 1180.7794219374673,
      "latitude_deg": -7.707181610869646e-06,
      "longitude_deg": 165.27403613743618,
      "height_km": 1184.9370816503156,
      "semi_major_axis_km": 7559.907525814102,
      "eccentricity": 0.0001311,
      "inclination_deg": 87.914,
      "raan_deg": 288.4864,
      "arg_perigee_deg": 105.536,
      "mean_anomaly_deg": 254.5918,
      "mean_motion_rev_day": 13.20772559
    },
    {
      "epoch": "2026-04-08T13:19:28.140384Z",
      "apogee_km": 1182.7790200068894,
      "perigee_km": 1180.7609784325186,
      "latitude_deg": -1.3308323457598132e-05,
      "longitude_deg": -108.34830482635002,
      "height_km": 1184.9543996265593,
      "semi_major_axis_km": 7559.906999219704,
      "eccentricity": 0.00013347,
      "inclination_deg": 87.9139,
      "raan_deg": 288.335,
      "arg_perigee_deg": 106.3079,
      "mean_anomaly_deg": 253.8201,
      "mean_motion_rev_day": 13.20772697
    },
    {
      "epoch": "2026-04-09T12:57:38.083104Z",
      "apogee_km": 1182.8044165275978,
      "perigee_km": 1180.7330023632085,
      "latitude_deg": 4.650318534701353e-05,
      "longitude_deg": -104.05723354062637,
      "height_km": 1184.9712098319987,
      "semi_major_axis_km": 7559.905709445403,
      "eccentricity": 0.000137,
      "inclination_deg": 87.9139,
      "raan_deg": 288.1382,
      "arg_perigee_deg": 106.9234,
      "mean_anomaly_deg": 253.205,
      "mean_motion_rev_day": 13.20773035
    },
    {
      "epoch": "2026-04-10T12:35:47.986080Z",
      "apogee_km": 1182.8373095824772,
      "perigee_km": 1180.7008801200727,
      "latitude_deg": 2.8120043863132187e-05,
      "longitude_deg": -99.76609868105649,
      "height_km": 1184.9923984364975,
      "semi_major_axis_km": 7559.906094851275,
      "eccentricity": 0.0001413,
      "inclination_deg": 87.9139,
      "raan_deg": 287.9413,
      "arg_perigee_deg": 107.5634,
      "mean_anomaly_deg": 252.5654,
      "mean_motion_rev_day": 13.20772934
    }
  ]
}